XRISM                   
1 57800U 23137A   26068.64062262  .00006732  00000+0  38198-3 0  9995
2 57800  31.0014 283.9817 0008016  38.2184 321.9022 15.11501831137781
ACS3                    
1 59588U 24077B   26068.42598315  .00030931  00000+0  24833-1 0  9990
2 59588  97.2071   9.5971 0059437  77.4561 283.3243 13.89610552 94167
SZ-21 MODULE            
1 66515U 25246C   26067.73638915  .00047754  00000+0  41113-3 0  9994
2 66515  41.4736 209.2286 0001365 296.9264  63.1439 15.68463397 17929
